NORAD_CAT_ID,OBJECT_NAME,OBJECT_TYPE,EPOCH,MEAN_MOTION,ECCENTRICITY,INCLINATION,RA_OF_ASC_NODE,ARG_OF_PERICENTER,MEAN_ANOMALY,BSTAR,MEAN_MOTION_DOT,MEAN_MOTION_DDOT,TLE_LINE0,TLE_LINE1,TLE_LINE2,SEMIMAJOR_AXIS,PERIOD,APOGEE,PERIGEE,DECAYED
53931.0,STARLINK-5015,PAYLOAD,2024-07-26 22:01:20,15.08852804,0.0001123,53.2157,70.8662,80.804,279.3079,0.00022473,3.292e-05,0.0,0 STARLINK-5015,1 53931U 22119AX  24208.91759372  .00003292  00000-0  22473-3 0  9992,2 53931  53.2157  70.8662 0001123  80.8040 279.3079 15.08852804102856,6917.841,95.437,540.483,538.929,0.0
53931.0,STARLINK-5015,PAYLOAD,2024-07-27 21:52:09,15.08828702,0.0001414,53.2166,66.4053,79.1248,280.9904,1.0228e-05,-1.25e-06,0.0,0 STARLINK-5015,1 53931U 22119AX  24209.91122034 -.00000125  00000-0  10228-4 0  9991,2 53931  53.2166  66.4053 0001414  79.1248 280.9904 15.08828702103008,6917.915,95.438,540.758,538.802,0.0
53931.0,STARLINK-5015,PAYLOAD,2024-07-28 20:07:31,15.08897451,0.0003368,53.2144,62.2435,107.2979,252.8381,-0.00079809,-0.0001299,0.0,0 STARLINK-5015,1 53931U 22119AX  24210.83855635 -.00012990  00000-0 -79809-3 0  9997,2 53931  53.2144  62.2435 0003368 107.2979 252.8381 15.08897451102728,6917.705,95.434,541.9,537.24,0.0
53931.0,STARLINK-5015,PAYLOAD,2024-07-28 21:42:55,15.08845866,0.0001393,53.2164,61.9456,77.5955,282.5193,8.2632e-05,1.028e-05,0.0,0 STARLINK-5015,1 53931U 22119AX  24210.90481046  .00001028  00000-0  82632-4 0  9993,2 53931  53.2164  61.9456 0001393  77.5955 282.5193 15.08845866103150,6917.862,95.437,540.691,538.764,0.0
53931.0,STARLINK-5015,PAYLOAD,2024-07-29 07:15:14,15.08837808,0.0001609,53.2164,60.1611,80.2558,279.8616,0.00019597,2.832e-05,0.0,0 STARLINK-5015,1 53931U 22119AX  24211.30225373  .00002832  00000-0  19597-3 0  9990,2 53931  53.2164  60.1611 0001609  80.2558 279.8616 15.08837808102799,6917.887,95.438,540.865,538.639,0.0
53931.0,STARLINK-5015,PAYLOAD,2024-07-29 19:58:20,15.08789649,0.0001657,53.2153,57.7811,93.7055,266.4126,0.00089369,0.00013944,0.0,0 STARLINK-5015,1 53931U 22119AX  24211.83218281  .00013944  00000-0  89369-3 0  9998,2 53931  53.2153  57.7811 0001657  93.7055 266.4126 15.08789649102871,6918.034,95.441,541.046,538.753,0.0
53931.0,STARLINK-5015,PAYLOAD,2024-07-29 21:33:43,15.08807409,0.0001643,53.2162,57.4843,89.4672,270.6508,0.00068522,0.00010624,0.0,0 STARLINK-5015,1 53931U 22119AX  24211.89841992  .00010624  00000-0  68522-3 0  9995,2 53931  53.2162  57.4843 0001643  89.4672 270.6508 15.08807409103300,6917.98,95.44,540.982,538.708,0.0
53931.0,STARLINK-5015,PAYLOAD,2024-07-30 07:06:02,15.08813248,0.0001767,53.2164,55.7009,82.3303,277.789,0.00062462,9.66e-05,0.0,0 STARLINK-5015,1 53931U 22119AX  24212.29586582  .00009660  00000-0  62462-3 0  9996,2 53931  53.2164  55.7009 0001767  82.3303 277.7890 15.08813248103363,6917.962,95.439,541.05,538.605,0.0
53931.0,STARLINK-5015,PAYLOAD,2024-07-30 19:49:06,15.08842168,0.0001547,53.2164,53.3228,81.0341,279.0826,0.00019525,2.821e-05,0.0,0 STARLINK-5015,1 53931U 22119AX  24212.82577172  .00002821  00000-0  19525-3 0  9994,2 53931  53.2164  53.3228 0001547  81.0341 279.0826 15.08842168103024,6917.874,95.437,540.809,538.669,0.0
53931.0,STARLINK-5015,PAYLOAD,2024-07-31 06:56:48,15.08850238,0.0001446,53.2164,51.2406,82.4198,277.6958,8.598e-05,1.081e-05,0.0,0 STARLINK-5015,1 53931U 22119AX  24213.28944684  .00001081  00000-0  85980-4 0  9997,2 53931  53.2164  51.2406 0001446  82.4198 277.6958 15.08850238103513,6917.849,95.437,540.714,538.714,0.0
53931.0,STARLINK-5015,PAYLOAD,2024-07-31 19:39:52,15.08854862,0.0001441,53.2171,48.8602,85.8617,274.254,0.00012815,1.753e-05,0.0,0 STARLINK-5015,1 53931U 22119AX  24213.81936033  .00001753  00000-0  12815-3 0  9997,2 53931  53.2171  48.8602 0001441  85.8617 274.2540 15.08854862103178,6917.835,95.437,540.697,538.703,0.0
53931.0,STARLINK-5015,PAYLOAD,2024-08-01 13:09:07,15.08843316,0.00014,53.2163,45.5864,99.8242,260.2908,5.069e-05,5.19e-06,0.0,0 STARLINK-5015,1 53931U 22119AX  24214.54800702  .00000519  00000-0  50690-4 0  9994,2 53931  53.2163  45.5864 0001400  99.8242 260.2908 15.08843316103701,6917.87,95.437,540.704,538.767,0.0
53931.0,STARLINK-5015,PAYLOAD,2024-08-01 22:41:26,15.08843206,0.000139,53.2166,43.8016,105.733,254.3816,4.6622e-05,4.54e-06,0.0,0 STARLINK-5015,1 53931U 22119AX  24214.94544524  .00000454  00000-0  46622-4 0  9993,2 53931  53.2166  43.8016 0001390 105.7330 254.3816 15.08843206103763,6917.871,95.437,540.697,538.774,0.0
53931.0,STARLINK-5015,PAYLOAD,2024-08-02 12:59:55,15.08830985,0.0001358,53.2178,41.122,102.8094,257.3049,-0.00013357,-2.412e-05,0.0,0 STARLINK-5015,1 53931U 22119AX  24215.54161315 -.00002412  00000-0 -13357-3 0  9999,2 53931  53.2178  41.1220 0001358 102.8094 257.3049 15.08830985103438,6917.908,95.438,540.712,538.833,0.0
53931.0,STARLINK-5015,PAYLOAD,2024-08-02 19:21:28,15.08831943,0.0001416,53.2168,39.9401,85.3594,274.756,-6.0321e-05,-1.248e-05,0.0,0 STARLINK-5015,1 53931U 22119AX  24215.80657674 -.00001248  00000-0 -60321-4 0  9996,2 53931  53.2168  39.9401 0001416  85.3594 274.7560 15.08831943103894,6917.905,95.438,540.75,538.79,0.0
53931.0,STARLINK-5015,PAYLOAD,2024-08-03 12:50:42,15.08837032,0.0001325,53.2163,36.6664,92.6929,267.4215,0.00018023,2.581e-05,0.0,0 STARLINK-5015,1 53931U 22119AX  24216.53521696  .00002581  00000-0  18023-3 0  9991,2 53931  53.2163  36.6664 0001325  92.6929 267.4215 15.08837032104001,6917.889,95.438,540.671,538.838,0.0
53931.0,STARLINK-5015,PAYLOAD,2024-08-03 19:12:14,15.08852533,0.0001385,53.2168,35.4804,92.8736,267.2415,0.00050803,7.809e-05,0.0,0 STARLINK-5015,1 53931U 22119AX  24216.80017297  .00007809  00000-0  50803-3 0  9998,2 53931  53.2168  35.4804 0001385  92.8736 267.2415 15.08852533103623,6917.842,95.437,540.665,538.749,0.0
53931.0,STARLINK-5015,PAYLOAD,2024-08-04 20:38:24,15.08894938,0.0001347,53.2163,30.7254,103.8037,256.3105,0.0021023,0.00033379,0.0,0 STARLINK-5015,1 53931U 22119AX  24217.86000353  .00033379  00000-0  21023-2 0  9992,2 53931  53.2163  30.7254 0001347 103.8037 256.3105 15.08894938103787,6917.712,95.434,540.509,538.646,0.0
53931.0,STARLINK-5015,PAYLOAD,2024-08-05 04:35:19,15.08841533,9.67e-05,53.2152,29.237,71.1405,288.9692,0.0011663,0.00018323,0.0,0 STARLINK-5015,1 53931U 22119AX  24218.19120251  .00018323  00000-0  11663-2 0  9990,2 53931  53.2152  29.2370 0000967  71.1405 288.9692 15.08841533103831,6917.876,95.437,540.41,539.072,0.0
53931.0,STARLINK-5015,PAYLOAD,2024-08-05 18:53:48,15.08854377,0.0001484,53.2165,26.558,87.0123,273.1039,0.00026611,3.951e-05,0.0,0 STARLINK-5015,1 53931U 22119AX  24218.78736225  .00003951  00000-0  26611-3 0  9990,2 53931  53.2165  26.5580 0001484  87.0123 273.1039 15.08854377103927,6917.836,95.437,540.728,538.675,0.0
53931.0,STARLINK-5015,PAYLOAD,2024-08-06 04:26:07,15.08842924,0.0001485,53.2166,24.7783,89.5629,270.5533,7.721e-05,9.41e-06,0.0,0 STARLINK-5015,1 53931U 22119AX  24219.18480602  .00000941  00000-0  77210-4 0  9998,2 53931  53.2166  24.7783 0001485  89.5629 270.5533 15.08842924103983,6917.871,95.437,540.764,538.709,0.0
53931.0,STARLINK-5015,PAYLOAD,2024-08-06 17:09:13,15.08819182,0.0001331,53.2162,22.3951,99.0738,261.0405,0.0014347,0.00022606,0.0,0 STARLINK-5015,1 53931U 22119AX  24219.71473694  .00022606  00000-0  14347-2 0  9992,2 53931  53.2162  22.3951 0001331  99.0738 261.0405 15.08819182104060,6917.944,95.439,540.73,538.888,0.0
53931.0,STARLINK-5015,PAYLOAD,2024-08-07 17:00:00,15.08850948,0.0001303,53.2163,17.9354,89.9243,270.1898,0.0013392,0.00021096,0.0,0 STARLINK-5015,1 53931U 22119AX  24220.70834273  .00021096  00000-0  13392-2 0  9998,2 53931  53.2163  17.9354 0001303  89.9243 270.1898 15.08850948104215,6917.847,95.437,540.613,538.811,0.0
53931.0,STARLINK-5015,PAYLOAD,2024-08-08 13:40:01,15.08855397,0.0001663,53.2171,14.0699,96.7023,263.4159,0.00088423,0.00013818,0.0,0 STARLINK-5015,1 53931U 22119AX  24221.56946123  .00013818  00000-0  88423-3 0  9992,2 53931  53.2171  14.0699 0001663  96.7023 263.4159 15.08855397104763,6917.833,95.437,540.849,538.548,0.0
53931.0,STARLINK-5015,PAYLOAD,2024-08-08 16:50:47,15.08858431,0.000164,53.2181,13.475,97.6864,262.4314,0.00071745,0.00011154,0.0,0 STARLINK-5015,1 53931U 22119AX  24221.70193904  .00011154  00000-0  71745-3 0  9999,2 53931  53.2181  13.4750 0001640  97.6864 262.4314 15.08858431104363,6917.824,95.436,540.824,538.555,0.0
53931.0,STARLINK-5015,PAYLOAD,2024-08-09 10:20:01,15.08858706,0.000174,53.2185,10.2019,95.0245,265.0946,0.00040643,6.189e-05,0.0,0 STARLINK-5015,1 53931U 22119AX  24222.43057274  .00006189  00000-0  40643-3 0  9994,2 53931  53.2185  10.2019 0001740  95.0245 265.0946 15.08858706104473,6917.823,95.436,540.892,538.485,0.0
53931.0,STARLINK-5015,PAYLOAD,2024-08-09 13:30:47,15.08863062,0.000163,53.2177,9.6122,90.6656,269.4523,0.0004618,7.074e-05,0.0,0 STARLINK-5015,1 53931U 22119AX  24222.56305036  .00007074  00000-0  46180-3 0  9996,2 53931  53.2177   9.6122 0001630  90.6656 269.4523 15.08863062104915,6917.81,95.436,540.803,538.547,0.0
53931.0,STARLINK-5015,PAYLOAD,2024-08-09 19:52:19,15.08879222,0.0001583,53.2166,8.4191,78.524,281.593,0.00086147,0.00013464,0.0,0 STARLINK-5015,1 53931U 22119AX  24222.82800291  .00013464  00000-0  86147-3 0  9995,2 53931  53.2166   8.4191 0001583  78.5240 281.5930 15.08879222104537,6917.761,95.435,540.721,538.53,0.0
53931.0,STARLINK-5015,PAYLOAD,2024-08-10 14:56:58,15.08832366,0.0001517,53.2178,4.8488,96.7607,263.3558,-0.00015055,-2.683e-05,0.0,0 STARLINK-5015,1 53931U 22119AX  24223.62289380 -.00002683  00000-0 -15055-3 0  9997,2 53931  53.2178   4.8488 0001517  96.7607 263.3558 15.08832366105077,6917.904,95.438,540.818,538.719,0.0
53931.0,STARLINK-5015,PAYLOAD,2024-08-10 16:32:21,15.08840233,0.0001568,53.2182,4.5493,102.4613,257.6554,0.00014025,1.945e-05,0.0,0 STARLINK-5015,1 53931U 22119AX  24223.68913241  .00001945  00000-0  14025-3 0  9997,2 53931  53.2182   4.5493 0001568 102.4613 257.6554 15.08840233104661,6917.88,95.438,540.829,538.66,0.0
